sat21493
1 21493U 75052FN  20046.17224354 -.00000321  00000-0 -11637-2 0  9996
2 21493  99.5973 290.2102 0769500 287.7074 236.1993 12.15447454265745
